[{"OBJECT_NAME":"GONETS-M 17","OBJECT_ID":"2020-068A","EPOCH":"2026-03-09T22:55:28.193952","MEAN_MOTION":12.42869183,"ECCENTRICITY":0.00212582,"INCLINATION":82.4966,"RA_OF_ASC_NODE":49.2242,"ARG_OF_PERICENTER":251.7945,"MEAN_ANOMALY":108.0821,"EPHEMERIS_TYPE":0,"CLASSIFICATION_TYPE":"U","NORAD_CAT_ID":46486,"ELEMENT_SET_NO":999,"REV_AT_EPOCH":24683,"BSTAR":-5.963985e-6,"MEAN_MOTION_DOT":9.0e-8,"MEAN_MOTION_DDOT":0},{"OBJECT_NAME":"DELTA 1 DEB","OBJECT_ID":"1973-086JF","EPOCH":"2026-03-09T09:47:04.422048","MEAN_MOTION":12.46364118,"ECCENTRICITY":0.00963494,"INCLINATION":101.5355,"RA_OF_ASC_NODE":313.0698,"ARG_OF_PERICENTER":354.9157,"MEAN_ANOMALY":5.0926,"EPHEMERIS_TYPE":0,"CLASSIFICATION_TYPE":"U","NORAD_CAT_ID":47114,"ELEMENT_SET_NO":999,"REV_AT_EPOCH":55398,"BSTAR":0.00023603552,"MEAN_MOTION_DOT":-8.0e-8,"MEAN_MOTION_DDOT":0}]
